IRIDIUM 166             
1 43570U 18061B   25359.22257527  .00000000  00000+0 -70199-5 0  9992
2 43570  86.3981 129.4910 0002162  91.7961 268.3482 14.34217572388464
IRIDIUM 158             
1 43571U 18061C   25358.91178759  .00000292  00000+0  97174-4 0  9990
2 43571  86.3985 129.6305 0001959 101.4926 258.6490 14.34218085388384
IRIDIUM 165             
1 43572U 18061D   25359.07669403  .00000234  00000+0  76318-4 0  9993
2 43572  86.3984 129.6046 0002044  92.3448 267.7981 14.34217226388437
IRIDIUM 155             
1 43573U 18061E   25358.89910270  .00000045  00000+0  90338-5 0  9993
2 43573  86.3980 129.5564 0002163  99.2443 260.8997 14.34218010388377
IRIDIUM 154             
1 43574U 18061F   25359.29868456  .00000074  00000+0  19351-4 0  9994
2 43574  86.3983 129.5144 0002042  93.7928 266.3502 14.34218519388487
IRIDIUM 163             
1 43575U 18061G   25359.07035094  .00000187  00000+0  59602-4 0  9993
2 43575  86.3984 129.5308 0001873  98.8167 261.3241 14.34218925388423
IRIDIUM 156             
1 43576U 18061H   25359.32405642  .00000328  00000+0  10989-3 0  9993
2 43576  86.3987 129.4318 0002180  95.4758 264.6687 14.34218610388452
IRIDIUM 164             
1 43577U 18061J   25359.30503431  .00000334  00000+0  11234-3 0  9998
2 43577  86.3986 129.4775 0002072  89.3922 270.7511 14.34221125388497
